KUIPER-00167            
1 65780U 25217U   25343.33335648 -.01816019  00000+0 -16749+0 0  9998
2 65780  51.8892  86.0144 0011415 323.5781 206.5746 14.97944725  5619
KUIPER-00168            
1 65781U 25217V   25342.58590668  .00029542  00000+0  76396-3 0  9992
2 65781  51.8732  83.9139 0000186 298.5991  61.4977 15.38847935 11410
KUIPER-00169            
1 65782U 25217W   25342.56323498  .00058301  00000+0  16503-2 0  9994
2 65782  51.8750  84.5102 0004901 333.7733  26.3005 15.35721932 11409
KUIPER-00170            
1 65783U 25217X   25343.33335648 -.00061316  00000+0 -25944-2 0  9992
2 65783  51.8814  82.3720 0008747 349.9260 259.0279 15.22767854  5465
KUIPER-00171            
1 65784U 25217Y   25343.00002315  .00020813  00000+0  18113-3 0  9995
2 65784  51.8570  75.1874 0009867 355.3970 140.5678 15.68957249  5532
KUIPER-00172            
1 65785U 25217Z   25342.59982007  .00046984  00000+0  12128-2 0  9990
2 65785  51.8720  84.0055 0004520 329.0377  31.0343 15.38676621 11416
KUIPER-00173            
1 65786U 25217AA  25342.56735719  .00013898  00000+0  43043-3 0  9993
2 65786  51.8742  84.5041 0004357 301.9217  58.1344 15.33717526 11406
KUIPER-00174            
1 65787U 25217AB  25342.72573770  .00041748  00000+0  10945-2 0  9998
2 65787  51.8727  83.3476 0002859 280.0230  80.0434 15.38258270 11434
